ONEWEB-0012             
1 44057U 19010A   25070.43169605  .00000016  00000+0  88171-5 0  9995
2 44057  87.9097 321.0464 0002171  94.8635 265.2744 13.16596448290679
ONEWEB-0010             
1 44058U 19010B   25070.38102164  .00000116  00000+0  26930-3 0  9991
2 44058  87.9100 321.0387 0002110  70.7758 289.3601 13.16592531290714
ONEWEB-0008             
1 44059U 19010C   25070.25436327 -.00000050  00000+0 -16386-3 0  9992
2 44059  87.9103 321.0644 0001527  80.8178 279.3126 13.16596068290814
ONEWEB-0007             
1 44060U 19010D   25070.53020544  .00000168  00000+0  41324-3 0  9993
2 44060  87.9145 351.3808 0002201  80.7712 279.3667 13.15548885290546
ONEWEB-0006             
1 44061U 19010E   25070.53415996  .00000189  00000+0  46680-3 0  9996
2 44061  87.9135 351.3385 0002127  76.0935 284.0432 13.15550146290599
ONEWEB-0011             
1 44062U 19010F   25070.50405368 -.00000070  00000+0 -22062-3 0  9995
2 44062  87.9138 351.3503 0001819  72.1698 287.9630 13.15546994290582
ONEWEB-0013             
1 45131U 20008A   25070.49524038  .00000668  00000+0  19021-2 0  9997
2 45131  87.8637 146.1265 0002675 121.5551 238.5837 13.09419029245511
ONEWEB-0017             
1 45132U 20008B   25070.42598585 -.00000415  00000+0 -12253-2 0  9991
2 45132  87.8859 128.5236 0001965  92.1370 267.9983 13.10375655247342
